[{"OBJECT_NAME":"STARLINK-4252","OBJECT_ID":"2022-077Q","EPOCH":"2026-03-09T22:40:46.889760","MEAN_MOTION":15.05655199,"ECCENTRICITY":0.00015341,"INCLINATION":97.6027,"RA_OF_ASC_NODE":251.553,"ARG_OF_PERICENTER":69.2175,"MEAN_ANOMALY":290.9216,"EPHEMERIS_TYPE":0,"CLASSIFICATION_TYPE":"U","NORAD_CAT_ID":53057,"ELEMENT_SET_NO":999,"REV_AT_EPOCH":20102,"BSTAR":-2.0556285e-5,"MEAN_MOTION_DOT":-3.57e-6,"MEAN_MOTION_DDOT":0},{"OBJECT_NAME":"COSMOS 2251 DEB","OBJECT_ID":"1993-036SS","EPOCH":"2026-03-09T22:59:54.978144","MEAN_MOTION":15.02003149,"ECCENTRICITY":0.00206055,"INCLINATION":74.0288,"RA_OF_ASC_NODE":253.6967,"ARG_OF_PERICENTER":277.4018,"MEAN_ANOMALY":234.4946,"EPHEMERIS_TYPE":0,"CLASSIFICATION_TYPE":"U","NORAD_CAT_ID":34449,"ELEMENT_SET_NO":999,"REV_AT_EPOCH":89999,"BSTAR":0.0029470254,"MEAN_MOTION_DOT":0.00038984,"MEAN_MOTION_DDOT":0}]
